ONEWEB-0545             
1 54647U 22166F   25047.52215572  .00000126  00000+0  27434-3 0  9991
2 54647  87.9347 340.7890 0001322  94.8119 265.3166 13.21827868107347
ONEWEB-0580             
1 54648U 22166G   25047.57104670  .00000013  00000+0 -57531-6 0  9993
2 54648  87.9355 340.7664 0001375  78.9743 281.1546 13.21825769107391
ONEWEB-0582             
1 54649U 22166H   25047.84071729  .00000176  00000+0  39526-3 0  9992
2 54649  87.9335 340.7410 0001186  77.6109 282.5157 13.21827747107875
ONEWEB-0583             
1 54650U 22166J   25047.85176055  .00000097  00000+0  20352-3 0  9992
2 54650  87.9350 340.7368 0001701  82.1209 278.0118 13.21827410107897
ONEWEB-0584             
1 54651U 22166K   25047.56947129  .00000032  00000+0  46230-4 0  9992
2 54651  87.9354 340.7708 0001376  73.5424 286.5861 13.21827069107362
ONEWEB-0585             
1 54652U 22166L   25047.51900174  .00000097  00000+0  20399-3 0  9995
2 54652  87.9344 340.7808 0001898  77.4339 282.7007 13.21827405107364
ONEWEB-0586             
1 54653U 22166M   25047.83442103  .00000154  00000+0  34254-3 0  9993
2 54653  87.9351 340.7320 0001613  81.5683 278.5633 13.21826930107871
ONEWEB-0587             
1 54654U 22166N   25047.84386991  .00000114  00000+0  24564-3 0  9996
2 54654  87.9348 340.6814 0002007  78.0757 282.0601 13.21828163108029
